start=new Date('2022-12-10T00:00:00.000Z').valueOf();
sats=[{"OBJECT_ID":"2022-125X","PERIAPSIS":"538.613","REV_AT_EPOCH":"130","INCLINATION":"53.2130","REF_FRAME":"TEME","OBJECT_NAME":"STARLINK-5147","RA_OF_ASC_NODE":"138.9898","MEAN_MOTION_DDOT":"0.0000000000000","NORAD_CAT_ID":"53985","OBJECT_TYPE":"PAYLOAD","CENTER_NAME":"EARTH","COUNTRY_CODE":"US","MEAN_ELEMENT_THEORY":"SGP4","MEAN_MOTION":"15.08904170","ELEMENT_SET_NO":"999","MEAN_MOTION_DOT":"-0.00107008","DECAY_DATE":null,"ARG_OF_PERICENTER":"88.3052","TLE_LINE2":"2 53985  53.2130 138.9898 0001354  88.3052  50.2130 15.08904170  1301","BSTAR":"-0.00679460000000","LAUNCH_DATE":"2022-10-05","TLE_LINE1":"1 53985U 22125X   22343.58334491 -.00107008  00000-0 -67946-2 0  9995","APOAPSIS":"540.486","EPOCH":"2022-12-09T14:00:01.000224","FILE":"3685263","RCS_SIZE":"LARGE","MEAN_ANOMALY":"50.2130","PERIOD":"95.433","CLASSIFICATION_TYPE":"U","ECCENTRICITY":"0.00013540","EPHEMERIS_TYPE":"0","TIME_SYSTEM":"UTC","SEMIMAJOR_AXIS":"6917.684","GP_ID":"219844186","SITE":"AFWTR"},{"SEMIMAJOR_AXIS":"6795.178","GP_ID":"219846215","SITE":"AFWTR","PERIOD":"92.910","TIME_SYSTEM":"UTC","EPHEMERIS_TYPE":"0","ECCENTRICITY":"0.00013630","CLASSIFICATION_TYPE":"U","MEAN_ANOMALY":"116.3948","LAUNCH_DATE":"2022-10-05","BSTAR":"0.00052168000000","TLE_LINE2":"2 53986  53.2130 131.0586 0001363  20.5494 116.3948 15.49892275 10609","RCS_SIZE":"LARGE","FILE":"3685309","EPOCH":"2022-12-09T22:00:00.999936","TLE_LINE1":"1 53986U 22125Y   22343.91667824  .00029275  00000-0  52168-3 0  9990","APOAPSIS":"417.969","ELEMENT_SET_NO":"999","MEAN_MOTION":"15.49892275","MEAN_ELEMENT_THEORY":"SGP4","COUNTRY_CODE":"US","CENTER_NAME":"EARTH","ARG_OF_PERICENTER":"20.5494","DECAY_DATE":null,"MEAN_MOTION_DOT":"0.00029275","OBJECT_NAME":"STARLINK-5119","OBJECT_TYPE":"PAYLOAD","NORAD_CAT_ID":"53986","MEAN_MOTION_DDOT":"0.0000000000000","RA_OF_ASC_NODE":"131.0586","REF_FRAME":"TEME","INCLINATION":"53.2130","OBJECT_ID":"2022-125Y","REV_AT_EPOCH":"1060","PERIAPSIS":"416.117"},{"ELEMENT_SET_NO":"999","MEAN_MOTION":"15.08727020","MEAN_ELEMENT_THEORY":"SGP4","COUNTRY_CODE":"US","CENTER_NAME":"EARTH","ARG_OF_PERICENTER":"131.5416","DECAY_DATE":null,"MEAN_MOTION_DOT":"0.00045807","OBJECT_NAME":"STARLINK-5112","OBJECT_TYPE":"PAYLOAD","NORAD_CAT_ID":"53987","MEAN_MOTION_DDOT":"0.0000000000000","RA_OF_ASC_NODE":"137.4548","REF_FRAME":"TEME","INCLINATION":"53.2136","OBJECT_ID":"2022-125Z","REV_AT_EPOCH":"1051","PERIAPSIS":"539.263","GP_ID":"219846227","SEMIMAJOR_AXIS":"6918.226","SITE":"AFWTR","PERIOD":"95.445","TIME_SYSTEM":"UTC","EPHEMERIS_TYPE":"0","ECCENTRICITY":"0.00011960","CLASSIFICATION_TYPE":"U","MEAN_ANOMALY":"38.9842","LAUNCH_DATE":"2022-10-05","BSTAR":"0.00288650000000","TLE_LINE2":"2 53987  53.2136 137.4548 0001196 131.5416  38.9842 15.08727020 10517","RCS_SIZE":"LARGE","FILE":"3685310","TLE_LINE1":"1 53987U 22125Z   22343.91667824  .00045807  00000-0  28865-2 0  9996","EPOCH":"2022-12-09T22:00:00.999936","APOAPSIS":"540.918"},{"TLE_LINE1":"1 53988U 22125AA  22343.58334491 -.00027587  00000-0 -17202-2 0  9991","APOAPSIS":"540.720","EPOCH":"2022-12-09T14:00:01.000224","RCS_SIZE":"LARGE","FILE":"3685263","TLE_LINE2":"2 53988  53.2162 138.8745 0001566  93.5483 104.9918 15.08875433  1300","BSTAR":"-0.00172020000000","LAUNCH_DATE":"2022-10-05","MEAN_ANOMALY":"104.9918","EPHEMERIS_TYPE":"0","ECCENTRICITY":"0.00015660","CLASSIFICATION_TYPE":"U","TIME_SYSTEM":"UTC","PERIOD":"95.435","SITE":"AFWTR","SEMIMAJOR_AXIS":"6917.772","GP_ID":"219843981","PERIAPSIS":"538.554","REV_AT_EPOCH":"130","OBJECT_ID":"2022-125AA","REF_FRAME":"TEME","INCLINATION":"53.2162","NORAD_CAT_ID":"53988","OBJECT_TYPE":"PAYLOAD","MEAN_MOTION_DDOT":"0.0000000000000","RA_OF_ASC_NODE":"138.8745","OBJECT_NAME":"STARLINK-5113","MEAN_MOTION_DOT":"-0.00027587","ARG_OF_PERICENTER":"93.5483","DECAY_DATE":null,"MEAN_ELEMENT_THEORY":"SGP4","CENTER_NAME":"EARTH","COUNTRY_CODE":"US","MEAN_MOTION":"15.08875433","ELEMENT_SET_NO":"999"},{"ARG_OF_PERICENTER":"66.3219","DECAY_DATE":null,"MEAN_MOTION_DOT":"-0.00025690","ELEMENT_SET_NO":"999","MEAN_MOTION":"15.10064876","MEAN_ELEMENT_THEORY":"SGP4","COUNTRY_CODE":"US","CENTER_NAME":"EARTH","NORAD_CAT_ID":"53989","OBJECT_TYPE":"PAYLOAD","RA_OF_ASC_NODE":"137.3736","MEAN_MOTION_DDOT":"0.0000000000000","OBJECT_NAME":"STARLINK-5115","REF_FRAME":"TEME","INCLINATION":"53.2137","REV_AT_EPOCH":"1051","PERIAPSIS":"535.019","OBJECT_ID":"2022-125AB","SITE":"AFWTR","GP_ID":"219845949","SEMIMAJOR_AXIS":"6914.139","TIME_SYSTEM":"UTC","EPHEMERIS_TYPE":"0","ECCENTRICITY":"0.00014250","CLASSIFICATION_TYPE":"U","PERIOD":"95.360","MEAN_ANOMALY":"145.0782","RCS_SIZE":"LARGE","FILE":"3685310","TLE_LINE1":"1 53989U 22125AB  22343.91667824 -.00025690  00000-0 -15486-2 0  9993","APOAPSIS":"536.989","EPOCH":"2022-12-09T22:00:00.999936","LAUNCH_DATE":"2022-10-05","BSTAR":"-0.00154860000000","TLE_LINE2":"2 53989  53.2137 137.3736 0001425  66.3219 145.0782 15.10064876 10518"},{"RA_OF_ASC_NODE":"137.3397","MEAN_MOTION_DDOT":"0.0000000000000","NORAD_CAT_ID":"53990","OBJECT_TYPE":"PAYLOAD","OBJECT_NAME":"STARLINK-5075","DECAY_DATE":null,"ARG_OF_PERICENTER":"51.2590","MEAN_MOTION_DOT":"-0.00077893","ELEMENT_SET_NO":"999","MEAN_MOTION":"15.08900472","CENTER_NAME":"EARTH","COUNTRY_CODE":"US","MEAN_ELEMENT_THEORY":"SGP4","REV_AT_EPOCH":"1051","PERIAPSIS":"538.286","OBJECT_ID":"2022-125AC","INCLINATION":"53.2166","REF_FRAME":"TEME","TIME_SYSTEM":"UTC","CLASSIFICATION_TYPE":"U","ECCENTRICITY":"0.00018430","EPHEMERIS_TYPE":"0","PERIOD":"95.434","SITE":"AFWTR","SEMIMAJOR_AXIS":"6917.696","GP_ID":"219846242","FILE":"3685311","RCS_SIZE":"LARGE","EPOCH":"2022-12-09T22:00:00.999936","TLE_LINE1":"1 53990U 22125AC  22343.91667824 -.00077893  00000-0 -49212-2 0  9991","APOAPSIS":"540.835","LAUNCH_DATE":"2022-10-05","TLE_LINE2":"2 53990  53.2166 137.3397 0001843  51.2590 178.9899 15.08900472 10516","BSTAR":"-0.00492120000000","MEAN_ANOMALY":"178.9899"},{"OBJECT_ID":"2022-125AD","REV_AT_EPOCH":"1061","PERIAPSIS":"394.414","INCLINATION":"53.2169","REF_FRAME":"TEME","OBJECT_NAME":"STARLINK-5118","MEAN_MOTION_DDOT":"0.0000000000000","RA_OF_ASC_NODE":"130.1808","NORAD_CAT_ID":"53991","OBJECT_TYPE":"PAYLOAD","MEAN_MOTION":"15.57254282","ELEMENT_SET_NO":"999","CENTER_NAME":"EARTH","COUNTRY_CODE":"US","MEAN_ELEMENT_THEORY":"SGP4","ARG_OF_PERICENTER":"35.7499","DECAY_DATE":null,"MEAN_MOTION_DOT":"-0.00590922","LAUNCH_DATE":"2022-10-05","BSTAR":"-0.00856200000000","TLE_LINE2":"2 53991  53.2169 130.1808 0001765  35.7499 183.8528 15.57254282 10616","FILE":"3685349","RCS_SIZE":"LARGE","TLE_LINE1":"1 53991U 22125AD  22343.91667824 -.00590922  00000-0 -85620-2 0  9998","APOAPSIS":"396.805","EPOCH":"2022-12-09T22:00:00.999936","MEAN_ANOMALY":"183.8528","PERIOD":"92.470","TIME_SYSTEM":"UTC","CLASSIFICATION_TYPE":"U","ECCENTRICITY":"0.00017650","EPHEMERIS_TYPE":"0","GP_ID":"219846554","SEMIMAJOR_AXIS":"6773.745","SITE":"AFWTR"},{"MEAN_MOTION_DOT":"0.00037861","DECAY_DATE":null,"ARG_OF_PERICENTER":"74.7430","MEAN_ELEMENT_THEORY":"SGP4","CENTER_NAME":"EARTH","COUNTRY_CODE":"US","MEAN_MOTION":"15.08827846","ELEMENT_SET_NO":"999","OBJECT_TYPE":"PAYLOAD","NORAD_CAT_ID":"53992","RA_OF_ASC_NODE":"137.2601","MEAN_MOTION_DDOT":"0.0000000000000","OBJECT_NAME":"STARLINK-5108","REF_FRAME":"TEME","INCLINATION":"53.2179","PERIAPSIS":"538.930","REV_AT_EPOCH":"1051","OBJECT_ID":"2022-125AE","SITE":"AFWTR","GP_ID":"219847036","SEMIMAJOR_AXIS":"6917.918","EPHEMERIS_TYPE":"0","CLASSIFICATION_TYPE":"U","ECCENTRICITY":"0.00012320","TIME_SYSTEM":"UTC","PERIOD":"95.438","MEAN_ANOMALY":"195.5145","TLE_LINE1":"1 53992U 22125AE  22343.91667824  .00037861  00000-0  23850-2 0  9992","APOAPSIS":"540.635","EPOCH":"2022-12-09T22:00:00.999936","RCS_SIZE":"LARGE","FILE":"3685349","BSTAR":"0.00238500000000","TLE_LINE2":"2 53992  53.2179 137.2601 0001232  74.7430 195.5145 15.08827846 10516","LAUNCH_DATE":"2022-10-05"},{"PERIOD":"93.872","TIME_SYSTEM":"UTC","ECCENTRICITY":"0.00017330","CLASSIFICATION_TYPE":"U","EPHEMERIS_TYPE":"0","SEMIMAJOR_AXIS":"6842.020","GP_ID":"219844187","SITE":"AFWTR","LAUNCH_DATE":"2022-10-05","TLE_LINE2":"2 53993  53.2169 134.6489 0001733  43.6477 113.2520 15.34003019  1301","BSTAR":"-0.02986700000000","FILE":"3685263","RCS_SIZE":"LARGE","EPOCH":"2022-12-09T14:00:01.000224","TLE_LINE1":"1 53993U 22125AF  22343.58334491 -.00913963  00000-0 -29867-1 0  9998","APOAPSIS":"465.071","MEAN_ANOMALY":"113.2520","OBJECT_NAME":"STARLINK-5121","RA_OF_ASC_NODE":"134.6489","MEAN_MOTION_DDOT":"0.0000000000000","NORAD_CAT_ID":"53993","OBJECT_TYPE":"PAYLOAD","MEAN_MOTION":"15.34003019","ELEMENT_SET_NO":"999","COUNTRY_CODE":"US","CENTER_NAME":"EARTH","MEAN_ELEMENT_THEORY":"SGP4","DECAY_DATE":null,"ARG_OF_PERICENTER":"43.6477","MEAN_MOTION_DOT":"-0.00913963","OBJECT_ID":"2022-125AF","REV_AT_EPOCH":"130","PERIAPSIS":"462.700","INCLINATION":"53.2169","REF_FRAME":"TEME"},{"MEAN_ELEMENT_THEORY":"SGP4","COUNTRY_CODE":"US","CENTER_NAME":"EARTH","ELEMENT_SET_NO":"999","MEAN_MOTION":"15.08930097","MEAN_MOTION_DOT":"-0.00114772","DECAY_DATE":null,"ARG_OF_PERICENTER":"64.9375","OBJECT_NAME":"STARLINK-5125","OBJECT_TYPE":"PAYLOAD","NORAD_CAT_ID":"53994","RA_OF_ASC_NODE":"137.1416","MEAN_MOTION_DDOT":"0.0000000000000","REF_FRAME":"TEME","INCLINATION":"53.2179","OBJECT_ID":"2022-125AG","PERIAPSIS":"538.511","REV_AT_EPOCH":"1052","GP_ID":"219847049","SEMIMAJOR_AXIS":"6917.605","SITE":"AFWTR","PERIOD":"95.432","EPHEMERIS_TYPE":"0","ECCENTRICITY":"0.00013860","CLASSIFICATION_TYPE":"U","TIME_SYSTEM":"UTC","MEAN_ANOMALY":"265.3188","TLE_LINE2":"2 53994  53.2179 137.1416 0001386  64.9375 265.3188 15.08930097 10527","BSTAR":"-0.00729160000000","LAUNCH_DATE":"2022-10-05","APOAPSIS":"540.429","TLE_LINE1":"1 53994U 22125AG  22343.91667824 -.00114772  00000-0 -72916-2 0  9990","EPOCH":"2022-12-09T22:00:00.999936","RCS_SIZE":"LARGE","FILE":"3685350"}];
